[{"OBJECT_NAME":"STARLINK-36756","OBJECT_ID":"2026-032W","EPOCH":"2026-03-09T21:53:16.589184","MEAN_MOTION":15.7527509,"ECCENTRICITY":9.159e-5,"INCLINATION":97.2843,"RA_OF_ASC_NODE":255.4874,"ARG_OF_PERICENTER":102.7886,"MEAN_ANOMALY":257.3482,"EPHEMERIS_TYPE":0,"CLASSIFICATION_TYPE":"U","NORAD_CAT_ID":67817,"ELEMENT_SET_NO":999,"REV_AT_EPOCH":481,"BSTAR":0.0015459296,"MEAN_MOTION_DOT":0.00237869,"MEAN_MOTION_DDOT":0},{"OBJECT_NAME":"WT 1A","OBJECT_ID":"2019-032F","EPOCH":"2026-03-09T22:33:15.206112","MEAN_MOTION":15.7566877,"ECCENTRICITY":0.00079486,"INCLINATION":44.975,"RA_OF_ASC_NODE":76.6684,"ARG_OF_PERICENTER":87.7,"MEAN_ANOMALY":272.4811,"EPHEMERIS_TYPE":0,"CLASSIFICATION_TYPE":"U","NORAD_CAT_ID":44315,"ELEMENT_SET_NO":999,"REV_AT_EPOCH":37389,"BSTAR":0.0012390673,"MEAN_MOTION_DOT":0.00199702,"MEAN_MOTION_DDOT":0}]
